<?xml version="1.0" encoding="UTF-8"?>
<ndm xmlns:xsi="http://www.w3.org/2001/XMLSchema-instance" xsi:noNamespaceSchemaLocation="https://sanaregistry.org/r/ndmxml_unqualified/ndmxml-2.0.0-master-2.0.xsd">
<omm id="CCSDS_OMM_VERS" version="2.0">
<header><CREATION_DATE/><ORIGINATOR/></header><body><segment><metadata><OBJECT_NAME>ORBCOMM FM33</OBJECT_NAME><OBJECT_ID>1999-065D</OBJECT_ID><CENTER_NAME>EARTH</CENTER_NAME><REF_FRAME>TEME</REF_FRAME><TIME_SYSTEM>UTC</TIME_SYSTEM><MEAN_ELEMENT_THEORY>SGP4</MEAN_ELEMENT_THEORY></metadata><data><meanElements><EPOCH>2026-01-27T06:34:52.228704</EPOCH><MEAN_MOTION>14.40681913</MEAN_MOTION><ECCENTRICITY>.0006143</ECCENTRICITY><INCLINATION>45.0291</INCLINATION><RA_OF_ASC_NODE>13.0655</RA_OF_ASC_NODE><ARG_OF_PERICENTER>110.4324</ARG_OF_PERICENTER><MEAN_ANOMALY>249.7185</MEAN_ANOMALY></meanElements><tleParameters><EPHEMERIS_TYPE>0</EPHEMERIS_TYPE><CLASSIFICATION_TYPE>U</CLASSIFICATION_TYPE><NORAD_CAT_ID>25983</NORAD_CAT_ID><ELEMENT_SET_NO>999</ELEMENT_SET_NO><REV_AT_EPOCH>36837</REV_AT_EPOCH><BSTAR>.68406E-3</BSTAR><MEAN_MOTION_DOT>.2063E-4</MEAN_MOTION_DOT><MEAN_MOTION_DDOT>0</MEAN_MOTION_DDOT></tleParameters></data></segment></body></omm>
<omm id="CCSDS_OMM_VERS" version="2.0">
<header><CREATION_DATE/><ORIGINATOR/></header><body><segment><metadata><OBJECT_NAME>ORBCOMM FM36</OBJECT_NAME><OBJECT_ID>1999-065E</OBJECT_ID><CENTER_NAME>EARTH</CENTER_NAME><REF_FRAME>TEME</REF_FRAME><TIME_SYSTEM>UTC</TIME_SYSTEM><MEAN_ELEMENT_THEORY>SGP4</MEAN_ELEMENT_THEORY></metadata><data><meanElements><EPOCH>2026-01-27T14:18:30.809088</EPOCH><MEAN_MOTION>14.38856436</MEAN_MOTION><ECCENTRICITY>.0002747</ECCENTRICITY><INCLINATION>45.0377</INCLINATION><RA_OF_ASC_NODE>106.8531</RA_OF_ASC_NODE><ARG_OF_PERICENTER>307.6498</ARG_OF_PERICENTER><MEAN_ANOMALY>52.4101</MEAN_ANOMALY></meanElements><tleParameters><EPHEMERIS_TYPE>0</EPHEMERIS_TYPE><CLASSIFICATION_TYPE>U</CLASSIFICATION_TYPE><NORAD_CAT_ID>25984</NORAD_CAT_ID><ELEMENT_SET_NO>999</ELEMENT_SET_NO><REV_AT_EPOCH>36673</REV_AT_EPOCH><BSTAR>.67759E-3</BSTAR><MEAN_MOTION_DOT>.1962E-4</MEAN_MOTION_DOT><MEAN_MOTION_DDOT>0</MEAN_MOTION_DDOT></tleParameters></data></segment></body></omm>
<omm id="CCSDS_OMM_VERS" version="2.0">
<header><CREATION_DATE/><ORIGINATOR/></header><body><segment><metadata><OBJECT_NAME>ORBCOMM FM35</OBJECT_NAME><OBJECT_ID>1999-065F</OBJECT_ID><CENTER_NAME>EARTH</CENTER_NAME><REF_FRAME>TEME</REF_FRAME><TIME_SYSTEM>UTC</TIME_SYSTEM><MEAN_ELEMENT_THEORY>SGP4</MEAN_ELEMENT_THEORY></metadata><data><meanElements><EPOCH>2026-01-27T14:28:31.012608</EPOCH><MEAN_MOTION>14.37763528</MEAN_MOTION><ECCENTRICITY>.0002201</ECCENTRICITY><INCLINATION>45.0383</INCLINATION><RA_OF_ASC_NODE>113.6938</RA_OF_ASC_NODE><ARG_OF_PERICENTER>105.5073</ARG_OF_PERICENTER><MEAN_ANOMALY>254.6019</MEAN_ANOMALY></meanElements><tleParameters><EPHEMERIS_TYPE>0</EPHEMERIS_TYPE><CLASSIFICATION_TYPE>U</CLASSIFICATION_TYPE><NORAD_CAT_ID>25985</NORAD_CAT_ID><ELEMENT_SET_NO>999</ELEMENT_SET_NO><REV_AT_EPOCH>36707</REV_AT_EPOCH><BSTAR>.70245E-3</BSTAR><MEAN_MOTION_DOT>.1992E-4</MEAN_MOTION_DOT><MEAN_MOTION_DDOT>0</MEAN_MOTION_DDOT></tleParameters></data></segment></body></omm>
<omm id="CCSDS_OMM_VERS" version="2.0">
<header><CREATION_DATE/><ORIGINATOR/></header><body><segment><metadata><OBJECT_NAME>ORBCOMM FM34</OBJECT_NAME><OBJECT_ID>1999-065G</OBJECT_ID><CENTER_NAME>EARTH</CENTER_NAME><REF_FRAME>TEME</REF_FRAME><TIME_SYSTEM>UTC</TIME_SYSTEM><MEAN_ELEMENT_THEORY>SGP4</MEAN_ELEMENT_THEORY></metadata><data><meanElements><EPOCH>2026-01-27T13:43:09.127488</EPOCH><MEAN_MOTION>14.37690788</MEAN_MOTION><ECCENTRICITY>.0002116</ECCENTRICITY><INCLINATION>45.0378</INCLINATION><RA_OF_ASC_NODE>114.3298</RA_OF_ASC_NODE><ARG_OF_PERICENTER>12.3198</ARG_OF_PERICENTER><MEAN_ANOMALY>347.7702</MEAN_ANOMALY></meanElements><tleParameters><EPHEMERIS_TYPE>0</EPHEMERIS_TYPE><CLASSIFICATION_TYPE>U</CLASSIFICATION_TYPE><NORAD_CAT_ID>25986</NORAD_CAT_ID><ELEMENT_SET_NO>999</ELEMENT_SET_NO><REV_AT_EPOCH>36718</REV_AT_EPOCH><BSTAR>.64757E-3</BSTAR><MEAN_MOTION_DOT>.1822E-4</MEAN_MOTION_DOT><MEAN_MOTION_DDOT>0</MEAN_MOTION_DDOT></tleParameters></data></segment></body></omm>
<omm id="CCSDS_OMM_VERS" version="2.0">
<header><CREATION_DATE/><ORIGINATOR/></header><body><segment><metadata><OBJECT_NAME>ORBCOMM FM38</OBJECT_NAME><OBJECT_ID>2008-031A</OBJECT_ID><CENTER_NAME>EARTH</CENTER_NAME><REF_FRAME>TEME</REF_FRAME><TIME_SYSTEM>UTC</TIME_SYSTEM><MEAN_ELEMENT_THEORY>SGP4</MEAN_ELEMENT_THEORY></metadata><data><meanElements><EPOCH>2026-01-27T19:37:03.111168</EPOCH><MEAN_MOTION>14.82529274</MEAN_MOTION><ECCENTRICITY>.0005071</ECCENTRICITY><INCLINATION>48.4403</INCLINATION><RA_OF_ASC_NODE>323.8479</RA_OF_ASC_NODE><ARG_OF_PERICENTER>290.2550</ARG_OF_PERICENTER><MEAN_ANOMALY>69.7820</MEAN_ANOMALY></meanElements><tleParameters><EPHEMERIS_TYPE>0</EPHEMERIS_TYPE><CLASSIFICATION_TYPE>U</CLASSIFICATION_TYPE><NORAD_CAT_ID>33060</NORAD_CAT_ID><ELEMENT_SET_NO>999</ELEMENT_SET_NO><REV_AT_EPOCH>94806</REV_AT_EPOCH><BSTAR>.49235437E-3</BSTAR><MEAN_MOTION_DOT>.3785E-4</MEAN_MOTION_DOT><MEAN_MOTION_DDOT>0</MEAN_MOTION_DDOT></tleParameters></data></segment></body></omm>
<omm id="CCSDS_OMM_VERS" version="2.0">
<header><CREATION_DATE/><ORIGINATOR/></header><body><segment><metadata><OBJECT_NAME>ORBCOMM FM41</OBJECT_NAME><OBJECT_ID>2008-031B</OBJECT_ID><CENTER_NAME>EARTH</CENTER_NAME><REF_FRAME>TEME</REF_FRAME><TIME_SYSTEM>UTC</TIME_SYSTEM><MEAN_ELEMENT_THEORY>SGP4</MEAN_ELEMENT_THEORY></metadata><data><meanElements><EPOCH>2026-01-27T21:27:35.601984</EPOCH><MEAN_MOTION>14.82070230</MEAN_MOTION><ECCENTRICITY>.0004304</ECCENTRICITY><INCLINATION>48.4441</INCLINATION><RA_OF_ASC_NODE>332.0644</RA_OF_ASC_NODE><ARG_OF_PERICENTER>275.5450</ARG_OF_PERICENTER><MEAN_ANOMALY>126.3258</MEAN_ANOMALY></meanElements><tleParameters><EPHEMERIS_TYPE>0</EPHEMERIS_TYPE><CLASSIFICATION_TYPE>U</CLASSIFICATION_TYPE><NORAD_CAT_ID>33061</NORAD_CAT_ID><ELEMENT_SET_NO>999</ELEMENT_SET_NO><REV_AT_EPOCH>94755</REV_AT_EPOCH><BSTAR>.41351221E-3</BSTAR><MEAN_MOTION_DOT>.3108E-4</MEAN_MOTION_DOT><MEAN_MOTION_DDOT>0</MEAN_MOTION_DDOT></tleParameters></data></segment></body></omm>
<omm id="CCSDS_OMM_VERS" version="2.0">
<header><CREATION_DATE/><ORIGINATOR/></header><body><segment><metadata><OBJECT_NAME>ORBCOMM FM29</OBJECT_NAME><OBJECT_ID>2008-031C</OBJECT_ID><CENTER_NAME>EARTH</CENTER_NAME><REF_FRAME>TEME</REF_FRAME><TIME_SYSTEM>UTC</TIME_SYSTEM><MEAN_ELEMENT_THEORY>SGP4</MEAN_ELEMENT_THEORY></metadata><data><meanElements><EPOCH>2026-01-27T20:33:30.161376</EPOCH><MEAN_MOTION>14.82235158</MEAN_MOTION><ECCENTRICITY>.00059886</ECCENTRICITY><INCLINATION>48.4393</INCLINATION><RA_OF_ASC_NODE>339.7390</RA_OF_ASC_NODE><ARG_OF_PERICENTER>274.9611</ARG_OF_PERICENTER><MEAN_ANOMALY>112.6987</MEAN_ANOMALY></meanElements><tleParameters><EPHEMERIS_TYPE>0</EPHEMERIS_TYPE><CLASSIFICATION_TYPE>U</CLASSIFICATION_TYPE><NORAD_CAT_ID>33062</NORAD_CAT_ID><ELEMENT_SET_NO>999</ELEMENT_SET_NO><REV_AT_EPOCH>94746</REV_AT_EPOCH><BSTAR>.53925033E-3</BSTAR><MEAN_MOTION_DOT>.4137E-4</MEAN_MOTION_DOT><MEAN_MOTION_DDOT>0</MEAN_MOTION_DDOT></tleParameters></data></segment></body></omm>
<omm id="CCSDS_OMM_VERS" version="2.0">
<header><CREATION_DATE/><ORIGINATOR/></header><body><segment><metadata><OBJECT_NAME>ORBCOMM FM39</OBJECT_NAME><OBJECT_ID>2008-031D</OBJECT_ID><CENTER_NAME>EARTH</CENTER_NAME><REF_FRAME>TEME</REF_FRAME><TIME_SYSTEM>UTC</TIME_SYSTEM><MEAN_ELEMENT_THEORY>SGP4</MEAN_ELEMENT_THEORY></metadata><data><meanElements><EPOCH>2026-01-27T23:26:25.240992</EPOCH><MEAN_MOTION>14.80638714</MEAN_MOTION><ECCENTRICITY>.00068625</ECCENTRICITY><INCLINATION>48.4407</INCLINATION><RA_OF_ASC_NODE>6.0112</RA_OF_ASC_NODE><ARG_OF_PERICENTER>246.6000</ARG_OF_PERICENTER><MEAN_ANOMALY>113.4193</MEAN_ANOMALY></meanElements><tleParameters><EPHEMERIS_TYPE>0</EPHEMERIS_TYPE><CLASSIFICATION_TYPE>U</CLASSIFICATION_TYPE><NORAD_CAT_ID>33063</NORAD_CAT_ID><ELEMENT_SET_NO>999</ELEMENT_SET_NO><REV_AT_EPOCH>94709</REV_AT_EPOCH><BSTAR>.39148973E-3</BSTAR><MEAN_MOTION_DOT>.2827E-4</MEAN_MOTION_DOT><MEAN_MOTION_DDOT>0</MEAN_MOTION_DDOT></tleParameters></data></segment></body></omm>

</ndm>
