ORBCOMM FM33            
1 25983U 99065D   26027.27421561  .00002063  00000+0  68406-3 0  9998
2 25983  45.0291  13.0655 0006143 110.4324 249.7185 14.40681913368379
ORBCOMM FM36            
1 25984U 99065E   26027.59618992  .00001962  00000+0  67759-3 0  9997
2 25984  45.0377 106.8531 0002747 307.6498  52.4101 14.38856436366733
ORBCOMM FM35            
1 25985U 99065F   26027.60313672  .00001992  00000+0  70245-3 0  9994
2 25985  45.0383 113.6938 0002201 105.5073 254.6019 14.37763528367077
ORBCOMM FM34            
1 25986U 99065G   26027.57163342  .00001822  00000+0  64757-3 0  9991
2 25986  45.0378 114.3298 0002116  12.3198 347.7702 14.37690788367189
ORBCOMM FM38            
1 33060U 08031A   26027.81739712  .00003785  00000+0  49235-3 0  9997
2 33060  48.4403 323.8479 0005071 290.2550  69.7820 14.82529274948062
ORBCOMM FM41            
1 33061U 08031B   26027.89416206  .00003108  00000+0  41351-3 0  9996
2 33061  48.4441 332.0644 0004304 275.5450 126.3258 14.82070230947555
ORBCOMM FM29            
1 33062U 08031C   26027.85659909  .00004137  00000+0  53925-3 0  9995
2 33062  48.4393 339.7390 0005988 274.9611 112.6987 14.82235158947464
ORBCOMM FM39            
1 33063U 08031D   26027.97668103  .00002827  00000+0  39149-3 0  9991
2 33063  48.4407   6.0112 0006862 246.6000 113.4193 14.80638714947097
